[{"OBJECT_NAME":"STARLINK-3500","OBJECT_ID":"2022-016AC","EPOCH":"2026-03-09T21:28:50.158272","MEAN_MOTION":15.08803065,"ECCENTRICITY":4.738e-5,"INCLINATION":53.2175,"RA_OF_ASC_NODE":318.2016,"ARG_OF_PERICENTER":85.0525,"MEAN_ANOMALY":275.0521,"EPHEMERIS_TYPE":0,"CLASSIFICATION_TYPE":"U","NORAD_CAT_ID":51740,"ELEMENT_SET_NO":999,"REV_AT_EPOCH":22359,"BSTAR":0.00071637304,"MEAN_MOTION_DOT":0.0001112,"MEAN_MOTION_DDOT":0},{"OBJECT_NAME":"TIANPING 2C","OBJECT_ID":"2022-032D","EPOCH":"2026-03-09T22:24:23.522112","MEAN_MOTION":15.10225163,"ECCENTRICITY":0.00079422,"INCLINATION":97.5961,"RA_OF_ASC_NODE":122.1196,"ARG_OF_PERICENTER":128.8925,"MEAN_ANOMALY":231.3013,"EPHEMERIS_TYPE":0,"CLASSIFICATION_TYPE":"U","NORAD_CAT_ID":52156,"ELEMENT_SET_NO":999,"REV_AT_EPOCH":21586,"BSTAR":0.00036090623,"MEAN_MOTION_DOT":5.841e-5,"MEAN_MOTION_DDOT":0}]
